start=new Date('2021-11-02T00:00:00.000Z').valueOf();
sats=[{"REV_AT_EPOCH":"3708","PERIOD":"95.592","TLE_LINE2":"2 47843  53.0558 188.7253 0001815  67.7622 292.3559 15.06406391 37081","EPOCH":"2021-11-01T22:55:49.653120","LAUNCH_DATE":"2021-03-11","OBJECT_ID":"2021-018BJ","MEAN_ANOMALY":"292.3559","REF_FRAME":"TEME","PERIAPSIS":"545.937","SEMIMAJOR_AXIS":"6925.329","TLE_LINE1":"1 47843U 21018BJ  21305.95543580  .00000698  00000-0  65751-4 0  9999","TIME_SYSTEM":"UTC","CENTER_NAME":"EARTH","SITE":"AFETR","CLASSIFICATION_TYPE":"U","INCLINATION":"53.0558","NORAD_CAT_ID":"47843","MEAN_MOTION":"15.06406391","OBJECT_NAME":"STARLINK-2435","OBJECT_TYPE":"PAYLOAD","FILE":"3196819","RA_OF_ASC_NODE":"188.7253","ECCENTRICITY":"0.00018150","MEAN_MOTION_DOT":"0.00000698","BSTAR":"0.00006575100000","RCS_SIZE":"LARGE","MEAN_MOTION_DDOT":"0.0000000000000","ELEMENT_SET_NO":"999","DECAY_DATE":null,"MEAN_ELEMENT_THEORY":"SGP4","ARG_OF_PERICENTER":"67.7622","COUNTRY_CODE":"US","APOAPSIS":"548.451","GP_ID":"188694607","EPHEMERIS_TYPE":"0"},{"ARG_OF_PERICENTER":"78.0096","MEAN_ELEMENT_THEORY":"SGP4","DECAY_DATE":null,"COUNTRY_CODE":"US","GP_ID":"188694858","APOAPSIS":"548.448","EPHEMERIS_TYPE":"0","MEAN_MOTION_DOT":"0.00000925","ECCENTRICITY":"0.00017510","RCS_SIZE":"LARGE","BSTAR":"0.00008098900000","MEAN_MOTION_DDOT":"0.0000000000000","ELEMENT_SET_NO":"999","INCLINATION":"53.0548","CLASSIFICATION_TYPE":"U","SITE":"AFETR","MEAN_MOTION":"15.06393024","NORAD_CAT_ID":"47844","FILE":"3196819","OBJECT_TYPE":"PAYLOAD","OBJECT_NAME":"STARLINK-2446","RA_OF_ASC_NODE":"183.7250","TLE_LINE2":"2 47844  53.0548 183.7250 0001751  78.0096 282.1089 15.06393024 37131","REV_AT_EPOCH":"3713","PERIOD":"95.593","EPOCH":"2021-11-01T22:53:51.003456","LAUNCH_DATE":"2021-03-11","SEMIMAJOR_AXIS":"6925.370","TLE_LINE1":"1 47844U 21018BK  21305.95406254  .00000925  00000-0  80989-4 0  9999","TIME_SYSTEM":"UTC","CENTER_NAME":"EARTH","REF_FRAME":"TEME","PERIAPSIS":"546.022","MEAN_ANOMALY":"282.1089","OBJECT_ID":"2021-018BK"},{"NORAD_CAT_ID":"47845","MEAN_MOTION":"15.06399376","SITE":"AFETR","CLASSIFICATION_TYPE":"U","INCLINATION":"53.0542","RA_OF_ASC_NODE":"184.5480","OBJECT_NAME":"STARLINK-2453","OBJECT_TYPE":"PAYLOAD","FILE":"3196819","EPOCH":"2021-11-01T18:33:46.014336","PERIOD":"95.592","REV_AT_EPOCH":"3711","TLE_LINE2":"2 47845  53.0542 184.5480 0001691  77.3092 282.8086 15.06399376 37119","OBJECT_ID":"2021-018BL","MEAN_ANOMALY":"282.8086","PERIAPSIS":"546.044","REF_FRAME":"TEME","TLE_LINE1":"1 47845U 21018BL  21305.77344924  .00000847  00000-0  75738-4 0  9994","TIME_SYSTEM":"UTC","SEMIMAJOR_AXIS":"6925.350","CENTER_NAME":"EARTH","LAUNCH_DATE":"2021-03-11","COUNTRY_CODE":"US","MEAN_ELEMENT_THEORY":"SGP4","DECAY_DATE":null,"ARG_OF_PERICENTER":"77.3092","EPHEMERIS_TYPE":"0","APOAPSIS":"548.387","GP_ID":"188695609","BSTAR":"0.00007573800000","RCS_SIZE":"LARGE","ECCENTRICITY":"0.00016910","MEAN_MOTION_DOT":"0.00000847","ELEMENT_SET_NO":"999","MEAN_MOTION_DDOT":"0.0000000000000"},{"COUNTRY_CODE":"US","MEAN_ELEMENT_THEORY":"SGP4","DECAY_DATE":null,"ARG_OF_PERICENTER":"58.1926","EPHEMERIS_TYPE":"0","GP_ID":"188693857","APOAPSIS":"548.678","BSTAR":"0.00001170600000","RCS_SIZE":"LARGE","MEAN_MOTION_DOT":"-0.00000107","ECCENTRICITY":"0.00020840","ELEMENT_SET_NO":"999","MEAN_MOTION_DDOT":"0.0000000000000","MEAN_MOTION":"15.06393071","NORAD_CAT_ID":"47846","INCLINATION":"53.0544","SITE":"AFETR","CLASSIFICATION_TYPE":"U","RA_OF_ASC_NODE":"184.5628","FILE":"3196819","OBJECT_NAME":"STARLINK-2456","OBJECT_TYPE":"PAYLOAD","EPOCH":"2021-11-01T18:28:28.629984","TLE_LINE2":"2 47846  53.0544 184.5628 0002084  58.1926 301.9265 15.06393071 37169","REV_AT_EPOCH":"3716","PERIOD":"95.593","TIME_SYSTEM":"UTC","TLE_LINE1":"1 47846U 21018BM  21305.76977581 -.00000107  00000-0  11706-4 0  9990","SEMIMAJOR_AXIS":"6925.370","CENTER_NAME":"EARTH","MEAN_ANOMALY":"301.9265","OBJECT_ID":"2021-018BM","REF_FRAME":"TEME","PERIAPSIS":"545.792","LAUNCH_DATE":"2021-03-11"},{"NORAD_CAT_ID":"47860","MEAN_MOTION":"15.06397753","CLASSIFICATION_TYPE":"U","SITE":"AFETR","INCLINATION":"53.0570","RA_OF_ASC_NODE":"214.5385","OBJECT_TYPE":"PAYLOAD","OBJECT_NAME":"STARLINK-2258","FILE":"3196819","EPOCH":"2021-11-01T18:35:05.627616","PERIOD":"95.592","REV_AT_EPOCH":"3646","TLE_LINE2":"2 47860  53.0570 214.5385 0001764  67.7604 292.3572 15.06397753 36468","PERIAPSIS":"545.999","REF_FRAME":"TEME","MEAN_ANOMALY":"292.3572","OBJECT_ID":"2021-021A","SEMIMAJOR_AXIS":"6925.355","TLE_LINE1":"1 47860U 21021A   21305.77437069  .00001711  00000-0  13377-3 0  9999","CENTER_NAME":"EARTH","TIME_SYSTEM":"UTC","LAUNCH_DATE":"2021-03-14","COUNTRY_CODE":"US","ARG_OF_PERICENTER":"67.7604","DECAY_DATE":null,"MEAN_ELEMENT_THEORY":"SGP4","EPHEMERIS_TYPE":"0","APOAPSIS":"548.442","GP_ID":"188695360","RCS_SIZE":"LARGE","BSTAR":"0.00013377000000","ECCENTRICITY":"0.00017640","MEAN_MOTION_DOT":"0.00001711","ELEMENT_SET_NO":"999","MEAN_MOTION_DDOT":"0.0000000000000"},{"ECCENTRICITY":"0.00017840","MEAN_MOTION_DOT":"0.00002075","BSTAR":"0.00015811000000","RCS_SIZE":"LARGE","MEAN_MOTION_DDOT":"0.0000000000000","ELEMENT_SET_NO":"999","MEAN_ELEMENT_THEORY":"SGP4","DECAY_DATE":null,"ARG_OF_PERICENTER":"73.2149","COUNTRY_CODE":"US","APOAPSIS":"548.410","GP_ID":"188695110","EPHEMERIS_TYPE":"0","REV_AT_EPOCH":"3677","PERIOD":"95.591","TLE_LINE2":"2 47861  53.0567 199.7567 0001784  73.2149 286.9035 15.06412683 36776","EPOCH":"2021-11-01T17:25:25.299264","LAUNCH_DATE":"2021-03-14","MEAN_ANOMALY":"286.9035","OBJECT_ID":"2021-021B","PERIAPSIS":"545.939","REF_FRAME":"TEME","TLE_LINE1":"1 47861U 21021B   21305.72598726  .00002075  00000-0  15811-3 0  9992","CENTER_NAME":"EARTH","SEMIMAJOR_AXIS":"6925.310","TIME_SYSTEM":"UTC","SITE":"AFETR","CLASSIFICATION_TYPE":"U","INCLINATION":"53.0567","NORAD_CAT_ID":"47861","MEAN_MOTION":"15.06412683","OBJECT_NAME":"STARLINK-2280","OBJECT_TYPE":"PAYLOAD","FILE":"3196819","RA_OF_ASC_NODE":"199.7567"},{"SITE":"AFETR","CLASSIFICATION_TYPE":"U","INCLINATION":"53.0558","NORAD_CAT_ID":"47862","MEAN_MOTION":"15.06396639","OBJECT_NAME":"STARLINK-2291","OBJECT_TYPE":"PAYLOAD","FILE":"3196819","RA_OF_ASC_NODE":"194.8390","PERIOD":"95.592","REV_AT_EPOCH":"3683","TLE_LINE2":"2 47862  53.0558 194.8390 0001785  68.7992 291.3188 15.06396639 36831","EPOCH":"2021-11-01T16:56:54.063456","LAUNCH_DATE":"2021-03-14","MEAN_ANOMALY":"291.3188","OBJECT_ID":"2021-021C","REF_FRAME":"TEME","PERIAPSIS":"545.988","SEMIMAJOR_AXIS":"6925.359","TLE_LINE1":"1 47862U 21021C   21305.70618129  .00001830  00000-0  14171-3 0  9997","CENTER_NAME":"EARTH","TIME_SYSTEM":"UTC","DECAY_DATE":null,"MEAN_ELEMENT_THEORY":"SGP4","ARG_OF_PERICENTER":"68.7992","COUNTRY_CODE":"US","APOAPSIS":"548.460","GP_ID":"188694359","EPHEMERIS_TYPE":"0","ECCENTRICITY":"0.00017850","MEAN_MOTION_DOT":"0.00001830","BSTAR":"0.00014171000000","RCS_SIZE":"LARGE","MEAN_MOTION_DDOT":"0.0000000000000","ELEMENT_SET_NO":"999"},{"FILE":"3196819","OBJECT_NAME":"STARLINK-2293","OBJECT_TYPE":"PAYLOAD","RA_OF_ASC_NODE":"204.7297","INCLINATION":"53.0556","SITE":"AFETR","CLASSIFICATION_TYPE":"U","MEAN_MOTION":"15.06400340","NORAD_CAT_ID":"47863","LAUNCH_DATE":"2021-03-14","TLE_LINE1":"1 47863U 21021D   21305.73106075  .00001248  00000-0  10264-3 0  9995","CENTER_NAME":"EARTH","SEMIMAJOR_AXIS":"6925.348","TIME_SYSTEM":"UTC","OBJECT_ID":"2021-021D","MEAN_ANOMALY":"285.0349","PERIAPSIS":"546.004","REF_FRAME":"TEME","TLE_LINE2":"2 47863  53.0556 204.7297 0001745  75.0833 285.0349 15.06400340 36708","REV_AT_EPOCH":"3670","PERIOD":"95.592","EPOCH":"2021-11-01T17:32:43.648800","GP_ID":"188694609","APOAPSIS":"548.421","EPHEMERIS_TYPE":"0","DECAY_DATE":null,"MEAN_ELEMENT_THEORY":"SGP4","ARG_OF_PERICENTER":"75.0833","COUNTRY_CODE":"US","MEAN_MOTION_DDOT":"0.0000000000000","ELEMENT_SET_NO":"999","MEAN_MOTION_DOT":"0.00001248","ECCENTRICITY":"0.00017450","BSTAR":"0.00010264000000","RCS_SIZE":"LARGE"},{"COUNTRY_CODE":"US","MEAN_ELEMENT_THEORY":"SGP4","DECAY_DATE":null,"ARG_OF_PERICENTER":"78.3195","EPHEMERIS_TYPE":"0","APOAPSIS":"548.312","GP_ID":"188694860","BSTAR":"-0.00003368000000","RCS_SIZE":"LARGE","ECCENTRICITY":"0.00015480","MEAN_MOTION_DOT":"-0.00000783","ELEMENT_SET_NO":"999","MEAN_MOTION_DDOT":"0.0000000000000","NORAD_CAT_ID":"47864","MEAN_MOTION":"15.06391255","SITE":"AFETR","CLASSIFICATION_TYPE":"U","INCLINATION":"53.0550","RA_OF_ASC_NODE":"194.8437","OBJECT_NAME":"STARLINK-2304","OBJECT_TYPE":"PAYLOAD","FILE":"3196819","EPOCH":"2021-11-01T16:55:33.142944","REV_AT_EPOCH":"3681","PERIOD":"95.593","TLE_LINE2":"2 47864  53.0550 194.8437 0001548  78.3195 281.7968 15.06391255 36812","OBJECT_ID":"2021-021E","MEAN_ANOMALY":"281.7968","PERIAPSIS":"546.168","REF_FRAME":"TEME","CENTER_NAME":"EARTH","TLE_LINE1":"1 47864U 21021E   21305.70524471 -.00000783  00000-0 -33680-4 0  9990","SEMIMAJOR_AXIS":"6925.375","TIME_SYSTEM":"UTC","LAUNCH_DATE":"2021-03-14"},{"MEAN_MOTION_DDOT":"0.0000000000000","ELEMENT_SET_NO":"999","ECCENTRICITY":"0.00015600","MEAN_MOTION_DOT":"0.00001791","RCS_SIZE":"LARGE","BSTAR":"0.00013914000000","APOAPSIS":"548.301","GP_ID":"188695611","EPHEMERIS_TYPE":"0","ARG_OF_PERICENTER":"80.4015","DECAY_DATE":null,"MEAN_ELEMENT_THEORY":"SGP4","COUNTRY_CODE":"US","LAUNCH_DATE":"2021-03-14","REF_FRAME":"TEME","PERIAPSIS":"546.141","OBJECT_ID":"2021-021F","MEAN_ANOMALY":"279.7150","CENTER_NAME":"EARTH","TLE_LINE1":"1 47865U 21021F   21305.83795257  .00001791  00000-0  13914-3 0  9992","SEMIMAJOR_AXIS":"6925.356","TIME_SYSTEM":"UTC","PERIOD":"95.592","REV_AT_EPOCH":"3682","TLE_LINE2":"2 47865  53.0547 204.2349 0001560  80.4015 279.7150 15.06397528 36826","EPOCH":"2021-11-01T20:06:39.102048","OBJECT_TYPE":"PAYLOAD","OBJECT_NAME":"STARLINK-2310","FILE":"3196819","RA_OF_ASC_NODE":"204.2349","CLASSIFICATION_TYPE":"U","SITE":"AFETR","INCLINATION":"53.0547","NORAD_CAT_ID":"47865","MEAN_MOTION":"15.06397528"}];
